{"type": "FeatureCollection", "features": [ {"type": "Feature", "properties": {"norad_id": 43010, "name": "FENGYUN 3D", "group": "weather", "lat": 6.770174871285288, "lon": -54.24990880171073, "alt_km": 828.9048407380587, "timestamp": "2025-12-06T14:35:36.770912+00:00", "meta": {"OBJECT_NAME": "FENGYUN 3D", "OBJECT_ID": "2017-072A", "EPOCH": "2025-12-06T06:06:14.468832", "MEAN_MOTION": 14.19681072, "ECCENTRICITY": 7.131e-05, "INCLINATION": 98.9885, "RA_OF_ASC_NODE": 306.4678, "ARG_OF_PERICENTER": 204.2138, "MEAN_ANOMALY": 155.9004, "EPHEMERIS_TYPE": 0, "CLASSIFICATION_TYPE": "U", "NORAD_CAT_ID": 43010, "ELEMENT_SET_NO": 999, "REV_AT_EPOCH": 41761, "BSTAR": 0.00013054308, "MEAN_MOTION_DOT": 2.3e-06, "MEAN_MOTION_DDOT": 0}, "tle": {"line1": "1 43010U 17072A   25340.25433413  .00000230  00000+0  13054-3 0  9994", "line2": "2 43010  98.9885 306.4678 0000713 204.2138 155.9004 14.19681072417614"}}, "geometry": {"type": "Point", "coordinates": [-54.24990880171073, 6.770174871285288]}}, {"type": "Feature", "properties": {"norad_id": 43013, "name": "NOAA 20 (JPSS-1)", "group": "weather", "lat": 16.753085818491012, "lon": 99.63220911035145, "alt_km": 826.8882620451859, "timestamp": "2025-12-06T14:35:36.770923+00:00", "meta": {"OBJECT_NAME": "NOAA 20 (JPSS-1)", "OBJECT_ID": "2017-073A", "EPOCH": "2025-12-06T05:22:13.378080", "MEAN_MOTION": 14.19523105, "ECCENTRICITY": 0.0002107, "INCLINATION": 98.7589, "RA_OF_ASC_NODE": 276.5922, "ARG_OF_PERICENTER": 96.4619, "MEAN_ANOMALY": 263.6797, "EPHEMERIS_TYPE": 0, "CLASSIFICATION_TYPE": "U", "NORAD_CAT_ID": 43013, "ELEMENT_SET_NO": 999, "REV_AT_EPOCH": 41709, "BSTAR": 0.00011875195, "MEAN_MOTION_DOT": 2.06e-06, "MEAN_MOTION_DDOT": 0}, "tle": {"line1": "1 43013U 17073A   25340.22376595  .00000206  00000+0  11875-3 0  9994", "line2": "2 43013  98.7589 276.5922 0002107  96.4619 263.6797 14.19523105417099"}}, "geometry": {"type": "Point", "coordinates": [99.63220911035145, 16.753085818491012]}}, {"type": "Feature", "properties": {"norad_id": 43226, "name": "GOES 17", "group": "weather", "lat": 0.3785240043157039, "lon": -154.99791169925115, "alt_km": 35780.611636633665, "timestamp": "2025-12-06T14:35:36.770935+00:00", "meta": {"OBJECT_NAME": "GOES 17", "OBJECT_ID": "2018-022A", "EPOCH": "2025-12-06T06:23:31.375968", "MEAN_MOTION": 1.00270942, "ECCENTRICITY": 0.0003526, "INCLINATION": 0.4423, "RA_OF_ASC_NODE": 89.2531, "ARG_OF_PERICENTER": 183.5694, "MEAN_ANOMALY": 168.8688, "EPHEMERIS_TYPE": 0, "CLASSIFICATION_TYPE": "U", "NORAD_CAT_ID": 43226, "ELEMENT_SET_NO": 999, "REV_AT_EPOCH": 2848, "BSTAR": 0, "MEAN_MOTION_DOT": -1.75e-06, "MEAN_MOTION_DDOT": 0}, "tle": {"line1": "1 43226U 18022A   25340.26633537 -.00000175  00000+0  00000+0 0  9991", "line2": "2 43226   0.4423  89.2531 0003526 183.5694 168.8688  1.00270942 28484"}}, "geometry": {"type": "Point", "coordinates": [-154.99791169925115, 0.3785240043157039]}}, {"type": "Feature", "properties": {"norad_id": 43491, "name": "FENGYUN 2H", "group": "weather", "lat": -2.32598903111473, "lon": 13.949380074464873, "alt_km": 35794.1498602358, "timestamp": "2025-12-06T14:35:36.770947+00:00", "meta": {"OBJECT_NAME": "FENGYUN 2H", "OBJECT_ID": "2018-050A", "EPOCH": "2025-12-06T02:03:30.718944", "MEAN_MOTION": 1.00271272, "ECCENTRICITY": 0.00029308, "INCLINATION": 2.5328, "RA_OF_ASC_NODE": 81.4024, "ARG_OF_PERICENTER": 164.6264, "MEAN_ANOMALY": 299.3423, "EPHEMERIS_TYPE": 0, "CLASSIFICATION_TYPE": "U", "NORAD_CAT_ID": 43491, "ELEMENT_SET_NO": 999, "REV_AT_EPOCH": 2750, "BSTAR": 0, "MEAN_MOTION_DOT": -1.23e-06, "MEAN_MOTION_DDOT": 0}, "tle": {"line1": "1 43491U 18050A   25340.08577221 -.00000123  00000+0  00000+0 0  9996", "line2": "2 43491   2.5328  81.4024 0002930 164.6264 299.3423  1.00271272 27503"}}, "geometry": {"type": "Point", "coordinates": [13.949380074464873, -2.32598903111473]}}, {"type": "Feature", "properties": {"norad_id": 43689, "name": "METOP-C", "group": "weather", "lat": -77.0791828426396, "lon": 176.63880559562372, "alt_km": 828.5844091800718, "timestamp": "2025-12-06T14:35:36.770958+00:00", "meta": {"OBJECT_NAME": "METOP-C", "OBJECT_ID": "2018-087A", "EPOCH": "2025-12-06T06:36:54.190944", "MEAN_MOTION": 14.21508244, "ECCENTRICITY": 0.0001604, "INCLINATION": 98.6938, "RA_OF_ASC_NODE": 38.144, "ARG_OF_PERICENTER": 53.1758, "MEAN_ANOMALY": 306.9566, "EPHEMERIS_TYPE": 0, "CLASSIFICATION_TYPE": "U", "NORAD_CAT_ID": 43689, "ELEMENT_SET_NO": 999, "REV_AT_EPOCH": 36742, "BSTAR": 0.00016045209, "MEAN_MOTION_DOT": 3.07e-06, "MEAN_MOTION_DDOT": 0}, "tle": {"line1": "1 43689U 18087A   25340.27562721  .00000307  00000+0  16045-3 0  9998", "line2": "2 43689  98.6938  38.1440 0001604  53.1758 306.9566 14.21508244367423"}}, "geometry": {"type": "Point", "coordinates": [176.63880559562372, -77.0791828426396]}}, {"type": "Feature", "properties": {"norad_id": 43823, "name": "GEO-KOMPSAT-2A", "group": "weather", "lat": -0.011991731184453309, "lon": 62.803834905357455, "alt_km": 35786.96716601937, "timestamp": "2025-12-06T14:35:36.770970+00:00", "meta": {"OBJECT_NAME": "GEO-KOMPSAT-2A", "OBJECT_ID": "2018-100A", "EPOCH": "2025-12-06T07:25:40.424160", "MEAN_MOTION": 1.00271869, "ECCENTRICITY": 3.109e-05, "INCLINATION": 0.0602, "RA_OF_ASC_NODE": 119.7562, "ARG_OF_PERICENTER": 74.1482, "MEAN_ANOMALY": 121.1344, "EPHEMERIS_TYPE": 0, "CLASSIFICATION_TYPE": "U", "NORAD_CAT_ID": 43823, "ELEMENT_SET_NO": 999, "REV_AT_EPOCH": 2569, "BSTAR": 0, "MEAN_MOTION_DOT": -3.36e-06, "MEAN_MOTION_DDOT": 0}, "tle": {"line1": "1 43823U 18100A   25340.30949565 -.00000336  00000+0  00000+0 0  9996", "line2": "2 43823   0.0602 119.7562 0000310  74.1482 121.1344  1.00271869 25693"}}, "geometry": {"type": "Point", "coordinates": [62.803834905357455, -0.011991731184453309]}}, {"type": "Feature", "properties": {"norad_id": 44387, "name": "METEOR-M2 2", "group": "weather", "lat": -80.64769953370062, "lon": 32.26444640181998, "alt_km": 818.4966404818033, "timestamp": "2025-12-06T14:35:36.770990+00:00", "meta": {"OBJECT_NAME": "METEOR-M2 2", "OBJECT_ID": "2019-038A", "EPOCH": "2025-12-06T04:53:10.135392", "MEAN_MOTION": 14.24287221, "ECCENTRICITY": 0.00010326, "INCLINATION": 98.8966, "RA_OF_ASC_NODE": 319.8527, "ARG_OF_PERICENTER": 161.4165, "MEAN_ANOMALY": 198.7051, "EPHEMERIS_TYPE": 0, "CLASSIFICATION_TYPE": "U", "NORAD_CAT_ID": 44387, "ELEMENT_SET_NO": 999, "REV_AT_EPOCH": 33382, "BSTAR": 0.00015945614, "MEAN_MOTION_DOT": 3.22e-06, "MEAN_MOTION_DDOT": 0}, "tle": {"line1": "1 44387U 19038A   25340.20358953  .00000322  00000+0  15946-3 0  9990", "line2": "2 44387  98.8966 319.8527 0001032 161.4165 198.7051 14.24287221333822"}}, "geometry": {"type": "Point", "coordinates": [32.26444640181998, -80.64769953370062]}}, {"type": "Feature", "properties": {"norad_id": 47719, "name": "ARKTIKA-M 1", "group": "weather", "lat": 17.76032654527206, "lon": 94.17948674209838, "alt_km": 10889.466304722875, "timestamp": "2025-12-06T14:35:36.771003+00:00", "meta": {"OBJECT_NAME": "ARKTIKA-M 1", "OBJECT_ID": "2021-016A", "EPOCH": "2025-12-01T02:41:41.634816", "MEAN_MOTION": 2.00613156, "ECCENTRICITY": 0.71974708, "INCLINATION": 63.1756, "RA_OF_ASC_NODE": 85.6045, "ARG_OF_PERICENTER": 269.084, "MEAN_ANOMALY": 15.7076, "EPHEMERIS_TYPE": 0, "CLASSIFICATION_TYPE": "U", "NORAD_CAT_ID": 47719, "ELEMENT_SET_NO": 999, "REV_AT_EPOCH": 3481, "BSTAR": 0, "MEAN_MOTION_DOT": -1.2e-07, "MEAN_MOTION_DDOT": 0}, "tle": {"line1": "1 47719U 21016A   25335.11228744 -.00000012  00000+0  00000+0 0  9997", "line2": "2 47719  63.1756  85.6045 7197470 269.0840  15.7076  2.00613156 34816"}}, "geometry": {"type": "Point", "coordinates": [94.17948674209838, 17.76032654527206]}}, {"type": "Feature", "properties": {"norad_id": 49008, "name": "FENGYUN 3E", "group": "weather", "lat": -30.244938026722146, "lon": -13.647431680369426, "alt_km": 831.2406732831678, "timestamp": "2025-12-06T14:35:36.771017+00:00", "meta": {"OBJECT_NAME": "FENGYUN 3E", "OBJECT_ID": "2021-062A", "EPOCH": "2025-12-06T04:35:24.377568", "MEAN_MOTION": 14.1987874, "ECCENTRICITY": 6.446e-05, "INCLINATION": 98.7476, "RA_OF_ASC_NODE": 340.7901, "ARG_OF_PERICENTER": 308.5676, "MEAN_ANOMALY": 51.5443, "EPHEMERIS_TYPE": 0, "CLASSIFICATION_TYPE": "U", "NORAD_CAT_ID": 49008, "ELEMENT_SET_NO": 999, "REV_AT_EPOCH": 22919, "BSTAR": 5.8237693e-05, "MEAN_MOTION_DOT": 8e-07, "MEAN_MOTION_DDOT": 0}, "tle": {"line1": "1 49008U 21062A   25340.19125437  .00000080  00000+0  58238-4 0  9995", "line2": "2 49008  98.7476 340.7901 0000644 308.5676  51.5443 14.19878740229191"}}, "geometry": {"type": "Point", "coordinates": [-13.647431680369426, -30.244938026722146]}}, {"type": "Feature", "properties": {"norad_id": 51850, "name": "GOES 18", "group": "weather", "lat": -0.001420014591394432, "lon": 157.52895200449785, "alt_km": 35788.71922561596, "timestamp": "2025-12-06T14:35:36.771028+00:00", "meta": {"OBJECT_NAME": "GOES 18", "OBJECT_ID": "2022-021A", "EPOCH": "2025-12-06T07:49:00.715872", "MEAN_MOTION": 1.00271766, "ECCENTRICITY": 8.748e-05, "INCLINATION": 0.0012, "RA_OF_ASC_NODE": 226.4931, "ARG_OF_PERICENTER": 67.4033, "MEAN_ANOMALY": 121.7224, "EPHEMERIS_TYPE": 0, "CLASSIFICATION_TYPE": "U", "NORAD_CAT_ID": 51850, "ELEMENT_SET_NO": 999, "REV_AT_EPOCH": 465, "BSTAR": 0, "MEAN_MOTION_DOT": 1.04e-06, "MEAN_MOTION_DDOT": 0}, "tle": {"line1": "1 51850U 22021A   25340.32570273  .00000104  00000+0  00000+0 0  9992", "line2": "2 51850   0.0012 226.4931 0000874  67.4033 121.7224  1.00271766  4657"}}, "geometry": {"type": "Point", "coordinates": [157.52895200449785, -0.001420014591394432]}}]}